CELESTIS-17 & SHERPA-FX1
1 47486U 21006CB  26068.64311433  .00007207  00000+0  24301-3 0  9993
2 47486  97.2397 112.1052 0006630 178.1385 181.9882 15.30994801284065
STARLINK-34602          
1 65333U 25189L   26068.65056941  .00027351  00000+0  93236-3 0  9996
2 65333  53.1598 206.7178 0000962  91.0813 269.0298 15.30194042 31103
