[{"OBJECT_NAME":"CELESTIS-17 & SHERPA-FX1","OBJECT_ID":"2021-006CB","EPOCH":"2026-03-09T15:26:05.078112","MEAN_MOTION":15.30994801,"ECCENTRICITY":0.000663,"INCLINATION":97.2397,"RA_OF_ASC_NODE":112.1052,"ARG_OF_PERICENTER":178.1385,"MEAN_ANOMALY":181.9882,"EPHEMERIS_TYPE":0,"CLASSIFICATION_TYPE":"U","NORAD_CAT_ID":47486,"ELEMENT_SET_NO":999,"REV_AT_EPOCH":28406,"BSTAR":0.00024301,"MEAN_MOTION_DOT":7.207e-5,"MEAN_MOTION_DDOT":0},{"OBJECT_NAME":"STARLINK-34602","OBJECT_ID":"2025-189L","EPOCH":"2026-03-09T15:36:49.197024","MEAN_MOTION":15.30194042,"ECCENTRICITY":9.62e-5,"INCLINATION":53.1598,"RA_OF_ASC_NODE":206.7178,"ARG_OF_PERICENTER":91.0813,"MEAN_ANOMALY":269.0298,"EPHEMERIS_TYPE":0,"CLASSIFICATION_TYPE":"U","NORAD_CAT_ID":65333,"ELEMENT_SET_NO":999,"REV_AT_EPOCH":3110,"BSTAR":0.00093235868,"MEAN_MOTION_DOT":0.00027351,"MEAN_MOTION_DDOT":0}]
